[{"OBJECT_NAME":"BUFENG 1B","OBJECT_ID":"2019-032B","EPOCH":"2026-03-09T19:57:27.457920","MEAN_MOTION":15.25619535,"ECCENTRICITY":0.00242037,"INCLINATION":44.9701,"RA_OF_ASC_NODE":192.0248,"ARG_OF_PERICENTER":123.8847,"MEAN_ANOMALY":236.4342,"EPHEMERIS_TYPE":0,"CLASSIFICATION_TYPE":"U","NORAD_CAT_ID":44311,"ELEMENT_SET_NO":999,"REV_AT_EPOCH":37256,"BSTAR":0.00059375374,"MEAN_MOTION_DOT":0.00015236,"MEAN_MOTION_DDOT":0},{"OBJECT_NAME":"STARLINK-31599","OBJECT_ID":"2024-057H","EPOCH":"2026-03-09T09:01:25.964544","MEAN_MOTION":15.27563267,"ECCENTRICITY":0.00020586,"INCLINATION":43.0022,"RA_OF_ASC_NODE":188.6306,"ARG_OF_PERICENTER":290.3865,"MEAN_ANOMALY":69.6766,"EPHEMERIS_TYPE":0,"CLASSIFICATION_TYPE":"U","NORAD_CAT_ID":59327,"ELEMENT_SET_NO":999,"REV_AT_EPOCH":10979,"BSTAR":-9.1003077e-5,"MEAN_MOTION_DOT":-2.765e-5,"MEAN_MOTION_DDOT":0}]
